CCSDS_OMM_VERS = 2.0
CREATION_DATE  = 
ORIGINATOR     = 

OBJECT_NAME    = SL-14 R/B
OBJECT_ID      = 1991-042B
CENTER_NAME    = EARTH
REF_FRAME      = TEME
TIME_SYSTEM    = UTC
MEAN_ELEMENT_THEORY = SGP/SGP4

EPOCH          = 2026-01-13T04:23:36.914496
MEAN_MOTION    = 14.81773085
ECCENTRICITY   = .00184886
INCLINATION    = 82.4929
RA_OF_ASC_NODE = 272.2416
ARG_OF_PERICENTER = 65.5634
MEAN_ANOMALY   = 294.7507

EPHEMERIS_TYPE = 0
CLASSIFICATION_TYPE = U
NORAD_CAT_ID   = 21423
ELEMENT_SET_NO = 999
REV_AT_EPOCH   = 84485
BSTAR          = .42522914E-4
MEAN_MOTION_DOT = .36E-5
MEAN_MOTION_DDOT = 0

CCSDS_OMM_VERS = 2.0
CREATION_DATE  = 
ORIGINATOR     = 

OBJECT_NAME    = ERS-1
OBJECT_ID      = 1991-050A
CENTER_NAME    = EARTH
REF_FRAME      = TEME
TIME_SYSTEM    = UTC
MEAN_ELEMENT_THEORY = SGP/SGP4

EPOCH          = 2026-01-13T00:26:16.195200
MEAN_MOTION    = 14.39394615
ECCENTRICITY   = .00321181
INCLINATION    = 98.7899
RA_OF_ASC_NODE = 29.8547
ARG_OF_PERICENTER = 9.3945
MEAN_ANOMALY   = 350.7836

EPHEMERIS_TYPE = 0
CLASSIFICATION_TYPE = U
NORAD_CAT_ID   = 21574
ELEMENT_SET_NO = 999
REV_AT_EPOCH   = 80772
BSTAR          = .10084378E-3
MEAN_MOTION_DOT = .269E-5
MEAN_MOTION_DDOT = 0

CCSDS_OMM_VERS = 2.0
CREATION_DATE  = 
ORIGINATOR     = 

OBJECT_NAME    = ARIANE 40 R/B
OBJECT_ID      = 1991-050F
CENTER_NAME    = EARTH
REF_FRAME      = TEME
TIME_SYSTEM    = UTC
MEAN_ELEMENT_THEORY = SGP/SGP4

EPOCH          = 2026-01-13T03:10:17.265792
MEAN_MOTION    = 14.42843131
ECCENTRICITY   = .00022272
INCLINATION    = 98.2121
RA_OF_ASC_NODE = 67.4232
ARG_OF_PERICENTER = 225.9602
MEAN_ANOMALY   = 134.1405

EPHEMERIS_TYPE = 0
CLASSIFICATION_TYPE = U
NORAD_CAT_ID   = 21610
ELEMENT_SET_NO = 999
REV_AT_EPOCH   = 81098
BSTAR          = .85107276E-4
MEAN_MOTION_DOT = .242E-5
MEAN_MOTION_DDOT = 0

CCSDS_OMM_VERS = 2.0
CREATION_DATE  = 
ORIGINATOR     = 

OBJECT_NAME    = INTERCOSMOS 25
OBJECT_ID      = 1991-086A
CENTER_NAME    = EARTH
REF_FRAME      = TEME
TIME_SYSTEM    = UTC
MEAN_ELEMENT_THEORY = SGP/SGP4

EPOCH          = 2026-01-13T04:10:42.162240
MEAN_MOTION    = 12.11850979
ECCENTRICITY   = .14859734
INCLINATION    = 82.6086
RA_OF_ASC_NODE = 343.5610
ARG_OF_PERICENTER = 236.5931
MEAN_ANOMALY   = 108.4310

EPHEMERIS_TYPE = 0
CLASSIFICATION_TYPE = U
NORAD_CAT_ID   = 21819
ELEMENT_SET_NO = 999
REV_AT_EPOCH   = 48996
BSTAR          = .24820757E-3
MEAN_MOTION_DOT = .1251E-4
MEAN_MOTION_DDOT = 0

CCSDS_OMM_VERS = 2.0
CREATION_DATE  = 
ORIGINATOR     = 

OBJECT_NAME    = SL-8 R/B
OBJECT_ID      = 1992-008B
CENTER_NAME    = EARTH
REF_FRAME      = TEME
TIME_SYSTEM    = UTC
MEAN_ELEMENT_THEORY = SGP/SGP4

EPOCH          = 2026-01-13T06:10:25.762368
MEAN_MOTION    = 13.75966036
ECCENTRICITY   = .00334588
INCLINATION    = 82.9289
RA_OF_ASC_NODE = 309.0063
ARG_OF_PERICENTER = 290.6469
MEAN_ANOMALY   = 222.3341

EPHEMERIS_TYPE = 0
CLASSIFICATION_TYPE = U
NORAD_CAT_ID   = 21876
ELEMENT_SET_NO = 999
REV_AT_EPOCH   = 70179
BSTAR          = .59855547E-4
MEAN_MOTION_DOT = .73E-6
MEAN_MOTION_DDOT = 0

CCSDS_OMM_VERS = 2.0
CREATION_DATE  = 
ORIGINATOR     = 

OBJECT_NAME    = SL-8 R/B
OBJECT_ID      = 1992-020B
CENTER_NAME    = EARTH
REF_FRAME      = TEME
TIME_SYSTEM    = UTC
MEAN_ELEMENT_THEORY = SGP/SGP4

EPOCH          = 2026-01-13T06:53:47.065056
MEAN_MOTION    = 13.75537291
ECCENTRICITY   = .00302523
INCLINATION    = 82.9294
RA_OF_ASC_NODE = 194.8897
ARG_OF_PERICENTER = 92.4882
MEAN_ANOMALY   = 80.5552

EPHEMERIS_TYPE = 0
CLASSIFICATION_TYPE = U
NORAD_CAT_ID   = 21938
ELEMENT_SET_NO = 999
REV_AT_EPOCH   = 69351
BSTAR          = .16146772E-3
MEAN_MOTION_DOT = .171E-5
MEAN_MOTION_DDOT = 0

CCSDS_OMM_VERS = 2.0
CREATION_DATE  = 
ORIGINATOR     = 

OBJECT_NAME    = USA 81
OBJECT_ID      = 1992-023A
CENTER_NAME    = EARTH
REF_FRAME      = TEME
TIME_SYSTEM    = UTC
MEAN_ELEMENT_THEORY = SGP/SGP4

EPOCH          = 2026-01-13T02:54:54.016992
MEAN_MOTION    = 14.32341643
ECCENTRICITY   = .00016076
INCLINATION    = 85.0099
RA_OF_ASC_NODE = 163.4784
ARG_OF_PERICENTER = 117.4038
MEAN_ANOMALY   = 242.7318

EPHEMERIS_TYPE = 0
CLASSIFICATION_TYPE = U
NORAD_CAT_ID   = 21949
ELEMENT_SET_NO = 999
REV_AT_EPOCH   = 8683
BSTAR          = .61450953E-4
MEAN_MOTION_DOT = .186E-5
MEAN_MOTION_DDOT = 0

CCSDS_OMM_VERS = 2.0
CREATION_DATE  = 
ORIGINATOR     = 

OBJECT_NAME    = COSMOS 2219
OBJECT_ID      = 1992-076A
CENTER_NAME    = EARTH
REF_FRAME      = TEME
TIME_SYSTEM    = UTC
MEAN_ELEMENT_THEORY = SGP/SGP4

EPOCH          = 2026-01-13T06:34:50.774592
MEAN_MOTION    = 14.14081405
ECCENTRICITY   = .00205938
INCLINATION    = 71.0618
RA_OF_ASC_NODE = 133.9143
ARG_OF_PERICENTER = 283.5815
MEAN_ANOMALY   = 76.3014

EPHEMERIS_TYPE = 0
CLASSIFICATION_TYPE = U
NORAD_CAT_ID   = 22219
ELEMENT_SET_NO = 999
REV_AT_EPOCH   = 71054
BSTAR          = .35879203E-4
MEAN_MOTION_DOT = .21E-6
MEAN_MOTION_DDOT = 0

CCSDS_OMM_VERS = 2.0
CREATION_DATE  = 
ORIGINATOR     = 

OBJECT_NAME    = SL-16 R/B
OBJECT_ID      = 1992-076B
CENTER_NAME    = EARTH
REF_FRAME      = TEME
TIME_SYSTEM    = UTC
MEAN_ELEMENT_THEORY = SGP/SGP4

EPOCH          = 2026-01-13T05:20:16.385568
MEAN_MOTION    = 14.16848790
ECCENTRICITY   = .00130656
INCLINATION    = 71.0015
RA_OF_ASC_NODE = 305.2145
ARG_OF_PERICENTER = 190.0577
MEAN_ANOMALY   = 319.9104

EPHEMERIS_TYPE = 0
CLASSIFICATION_TYPE = U
NORAD_CAT_ID   = 22220
ELEMENT_SET_NO = 999
REV_AT_EPOCH   = 71397
BSTAR          = .14024884E-3
MEAN_MOTION_DOT = .233E-5
MEAN_MOTION_DDOT = 0

CCSDS_OMM_VERS = 2.0
CREATION_DATE  = 
ORIGINATOR     = 

OBJECT_NAME    = COSMOS 2221
OBJECT_ID      = 1992-080A
CENTER_NAME    = EARTH
REF_FRAME      = TEME
TIME_SYSTEM    = UTC
MEAN_ELEMENT_THEORY = SGP/SGP4

EPOCH          = 2026-01-13T02:58:53.812416
MEAN_MOTION    = 14.95921353
ECCENTRICITY   = .00153581
INCLINATION    = 82.5056
RA_OF_ASC_NODE = 332.2825
ARG_OF_PERICENTER = 25.9783
MEAN_ANOMALY   = 334.2206

EPHEMERIS_TYPE = 0
CLASSIFICATION_TYPE = U
NORAD_CAT_ID   = 22236
ELEMENT_SET_NO = 999
REV_AT_EPOCH   = 77248
BSTAR          = .13284199E-3
MEAN_MOTION_DOT = .1516E-4
MEAN_MOTION_DDOT = 0

CCSDS_OMM_VERS = 2.0
CREATION_DATE  = 
ORIGINATOR     = 

OBJECT_NAME    = SL-16 R/B
OBJECT_ID      = 1992-093B
CENTER_NAME    = EARTH
REF_FRAME      = TEME
TIME_SYSTEM    = UTC
MEAN_ELEMENT_THEORY = SGP/SGP4

EPOCH          = 2026-01-13T01:13:50.163456
MEAN_MOTION    = 14.15435730
ECCENTRICITY   = .00035677
INCLINATION    = 71.0219
RA_OF_ASC_NODE = 121.0682
ARG_OF_PERICENTER = 1.0785
MEAN_ANOMALY   = 359.0345

EPHEMERIS_TYPE = 0
CLASSIFICATION_TYPE = U
NORAD_CAT_ID   = 22285
ELEMENT_SET_NO = 999
REV_AT_EPOCH   = 70528
BSTAR          = .14720972E-3
MEAN_MOTION_DOT = .24E-5
MEAN_MOTION_DDOT = 0

CCSDS_OMM_VERS = 2.0
CREATION_DATE  = 
ORIGINATOR     = 

OBJECT_NAME    = COSMOS 2228
OBJECT_ID      = 1992-094A
CENTER_NAME    = EARTH
REF_FRAME      = TEME
TIME_SYSTEM    = UTC
MEAN_ELEMENT_THEORY = SGP/SGP4

EPOCH          = 2026-01-13T05:50:57.274944
MEAN_MOTION    = 14.96905916
ECCENTRICITY   = .00192556
INCLINATION    = 82.5191
RA_OF_ASC_NODE = 290.3912
ARG_OF_PERICENTER = 124.9253
MEAN_ANOMALY   = 235.3782

EPHEMERIS_TYPE = 0
CLASSIFICATION_TYPE = U
NORAD_CAT_ID   = 22286
ELEMENT_SET_NO = 999
REV_AT_EPOCH   = 76776
BSTAR          = .1863561E-3
MEAN_MOTION_DOT = .2172E-4
MEAN_MOTION_DDOT = 0

