SL-14 R/B               
1 21423U 91042B   26013.18306614  .00000360  00000+0  42523-4 0  9997
2 21423  82.4929 272.2416 0018488  65.5634 294.7507 14.81773085844857
ERS-1                   
1 21574U 91050A   26013.01824300  .00000269  00000+0  10084-3 0  9996
2 21574  98.7899  29.8547 0032118   9.3945 350.7836 14.39394615807722
ARIANE 40 R/B           
1 21610U 91050F   26013.13214428  .00000242  00000+0  85107-4 0  9994
2 21610  98.2121  67.4232 0002227 225.9602 134.1405 14.42843131810983
INTERCOSMOS 25          
1 21819U 91086A   26013.17409910  .00001251  00000+0  24821-3 0  9996
2 21819  82.6086 343.5610 1485973 236.5931 108.4310 12.11850979489967
SL-8 R/B                
1 21876U 92008B   26013.25724262  .00000073  00000+0  59856-4 0  9991
2 21876  82.9289 309.0063 0033458 290.6469 222.3341 13.75966036701791
SL-8 R/B                
1 21938U 92020B   26013.28735029  .00000171  00000+0  16147-3 0  9994
2 21938  82.9294 194.8897 0030252  92.4882  80.5552 13.75537291693512
USA 81                  
1 21949U 92023A   26013.12145853  .00000186  00000+0  61451-4 0  9997
2 21949  85.0099 163.4784 0001607 117.4038 242.7318 14.32341643 86832
COSMOS 2219             
1 22219U 92076A   26013.27419878  .00000021  00000+0  35879-4 0  9996
2 22219  71.0618 133.9143 0020593 283.5815  76.3014 14.14081405710542
SL-16 R/B               
1 22220U 92076B   26013.22241187  .00000233  00000+0  14025-3 0  9993
2 22220  71.0015 305.2145 0013065 190.0577 319.9104 14.16848790713970
COSMOS 2221             
1 22236U 92080A   26013.12423394  .00001516  00000+0  13284-3 0  9997
2 22236  82.5056 332.2825 0015358  25.9783 334.2206 14.95921353772484
SL-16 R/B               
1 22285U 92093B   26013.05127504  .00000240  00000+0  14721-3 0  9991
2 22285  71.0219 121.0682 0003567   1.0785 359.0345 14.15435730705287
COSMOS 2228             
1 22286U 92094A   26013.24371846  .00002172  00000+0  18636-3 0  9999
2 22286  82.5191 290.3912 0019255 124.9253 235.3782 14.96905916767765
